1 37673U 11024A   13202.64583536  .00000165  00000-0  33932-4 0  9998
2 37673 098.0120 209.5881 0001416 107.4821 030.0043 14.72333646113594
1 37673U 11024A   13204.12291670  .00000238  00000-0  45482-4 0  9992
2 37673 098.0122 211.0440 0001419 109.1025 292.7887 14.72334426113818
1 37673U 11024A   13205.50459940  .00000205  00000-0  40284-4 0  9990
2 37673 098.0124 212.4059 0001454 111.7148 049.2364 14.72335177114017
1 37673U 11024A   13206.85194166  .00000226  00000-0  43549-4 0  9995
2 37673 098.0124 213.7341 0001440 109.5129 348.5948 14.72335520114211
1 37673U 11024A   13208.14186459  .00000244  00000-0  46404-4 0  9998
2 37673 098.0125 215.0057 0001441 109.6230 341.4826 14.72336411114404
1 37673U 11024A   13208.69435703  .00000227  00000-0  43657-4 0  9995
2 37673 098.0116 215.5508 0001569 107.2332 030.4581 14.72293837114483
1 37673U 11024A   13209.77595256  .00000254  00000-0  47971-4 0  9998
2 37673 098.0124 216.6163 0001616 103.2163 003.7521 14.72294354114642
1 37673U 11024A   13210.79367447  .00000304  00000-0  55993-4 0  9990
2 37673 098.0123 217.6197 0001595 102.8747 355.0340 14.72294622114794
1 37673U 11024A   13212.07327524  .00000218  00000-0  42373-4 0  9997
2 37673 098.0123 218.8811 0001659 110.7746 285.2624 14.72295725114983
1 37673U 11024A   13213.09929007  .00000244  00000-0  46483-4 0  9999
2 37673 098.0122 219.8927 0001632 107.7030 323.2043 14.72296207115136
1 37673U 11024A   13214.47324413  .00000252  00000-0  47753-4 0  9992
2 37673 098.0122 221.2471 0001587 103.2018 045.6378 14.72297126115332
1 37673U 11024A   13215.49344087  .00000259  00000-0  48850-4 0  9990
2 37673 098.0123 222.2528 0001578 103.1682 049.7286 14.72297887115486
